[
    {
        "Altitude(m)": 604221.2031107284,
        "Argument of Periapsis(deg)": 0.0,
        "Eccentricity": 0.0,
        "Inclination(deg)": 60.0,
        "Latitude(deg)": 14.117238917032054,
        "Longitude(deg)": -16.6658754192377,
        "Mean Anomaly(deg)": 16.363599999999998,
        "RAAN(deg)": 75.0,
        "Satellite Name": "Test1 331",
        "Satellite Number": 331,
        "Semi-Major Axis(m)": 6980739.136638005,
        "Time(s)": 0
    },
    {
        "Altitude(m)": 604235.3440888504,
        "Argument of Periapsis(deg)": 0.00010418945913296404,
        "Eccentricity": 0.0,
        "Inclination(deg)": 60.0,
        "Latitude(deg)": 14.651636272972738,
        "Longitude(deg)": -16.377429638559637,
        "Mean Anomaly(deg)": 16.983706145461838,
        "RAAN(deg)": 74.99957995086027,
        "Satellite Name": "Test1 331",
        "Satellite Number": 331,
        "Semi-Major Axis(m)": 6980739.136638005,
        "Time(s)": 10
    },
    {
        "Altitude(m)": 604252.3821740542,
        "Argument of Periapsis(deg)": 0.0002083789182659281,
        "Eccentricity": 0.0,
        "Inclination(deg)": 60.0,
        "Latitude(deg)": 15.18554382009895,
        "Longitude(deg)": -16.087380862787754,
        "Mean Anomaly(deg)": 17.603812290923667,
        "RAAN(deg)": 74.99915990172052,
        "Satellite Name": "Test1 331",
        "Satellite Number": 331,
        "Semi-Major Axis(m)": 6980739.136638005,
        "Time(s)": 20
    },
    {
        "Altitude(m)": 604272.2855375374,
        "Argument of Periapsis(deg)": 0.00031256837739889213,
        "Eccentricity": 0.0,
        "Inclination(deg)": 60.0,
        "Latitude(deg)": 15.718940253945537,
        "Longitude(deg)": -15.795661579894691,
        "Mean Anomaly(deg)": 18.223918436385496,
        "RAAN(deg)": 74.99873985258078,
        "Satellite Name": "Test1 331",
        "Satellite Number": 331,
        "Semi-Major Axis(m)": 6980739.136638005,
        "Time(s)": 30
    },
    {
        "Altitude(m)": 604295.0210757587,
        "Argument of Periapsis(deg)": 0.0004167578365318562,
        "Eccentricity": 0.0,
        "Inclination(deg)": 60.0,
        "Latitude(deg)": 16.251803934333658,
        "Longitude(deg)": -15.502202755238356,
        "Mean Anomaly(deg)": 18.84402458184732,
        "RAAN(deg)": 74.99831980344103,
        "Satellite Name": "Test1 331",
        "Satellite Number": 331,
        "Semi-Major Axis(m)": 6980739.136638005,
        "Time(s)": 40
    },
    {
        "Altitude(m)": 604320.5544293721,
        "Argument of Periapsis(deg)": 0.0005209472956648203,
        "Eccentricity": 0.0,
        "Inclination(deg)": 60.0,
        "Latitude(deg)": 16.78411286933272,
        "Longitude(deg)": -15.20693479598042,
        "Mean Anomaly(deg)": 19.46413072730915,
        "RAAN(deg)": 74.9978997543013,
        "Satellite Name": "Test1 331",
        "Satellite Number": 331,
        "Semi-Major Axis(m)": 6980739.136638005,
        "Time(s)": 50
    },
    {
        "Altitude(m)": 604348.8500027638,
        "Argument of Periapsis(deg)": 0.0006251367547977843,
        "Eccentricity": 0.0,
        "Inclination(deg)": 60.0,
        "Latitude(deg)": 17.315844698741827,
        "Longitude(deg)": -14.909787001778167,
        "Mean Anomaly(deg)": 20.08423687277099,
        "RAAN(deg)": 74.99747970516155,
        "Satellite Name": "Test1 331",
        "Satellite Number": 331,
        "Semi-Major Axis(m)": 6980739.136638005,
        "Time(s)": 60
    },
    {
        "Altitude(m)": 604379.8709841388,
        "Argument of Periapsis(deg)": 0.0007293262139307483,
        "Eccentricity": 0.0,
        "Inclination(deg)": 60.0,
        "Latitude(deg)": 17.846976677064834,
        "Longitude(deg)": -14.610687014596913,
        "Mean Anomaly(deg)": 20.704343018232816,
        "RAAN(deg)": 74.9970596560218,
        "Satellite Name": "Test1 331",
        "Satellite Number": 331,
        "Semi-Major Axis(m)": 6980739.136638005,
        "Time(s)": 70
    },
    {
        "Altitude(m)": 604413.5793662156,
        "Argument of Periapsis(deg)": 0.0008335156730637124,
        "Eccentricity": 0.0,
        "Inclination(deg)": 60.0,
        "Latitude(deg)": 18.377485655952622,
        "Longitude(deg)": -14.30956178049152,
        "Mean Anomaly(deg)": 21.324449163694645,
        "RAAN(deg)": 74.99663960688207,
        "Satellite Name": "Test1 331",
        "Satellite Number": 331,
        "Semi-Major Axis(m)": 6980739.136638005,
        "Time(s)": 80
    },
    {
        "Altitude(m)": 604449.9359674654,
        "Argument of Periapsis(deg)": 0.0009377051321966765,
        "Eccentricity": 0.0,
        "Inclination(deg)": 60.0,
        "Latitude(deg)": 18.90734806609266,
        "Longitude(deg)": -14.006336997589313,
        "Mean Anomaly(deg)": 21.944555309156474,
        "RAAN(deg)": 74.99621955774232,
        "Satellite Name": "Test1 331",
        "Satellite Number": 331,
        "Semi-Major Axis(m)": 6980739.136638005,
        "Time(s)": 90
    },
    {
        "Altitude(m)": 604488.9004539117,
        "Argument of Periapsis(deg)": 0.0010418945913296407,
        "Eccentricity": 0.0,
        "Inclination(deg)": 60.0,
        "Latitude(deg)": 19.43653989851826,
        "Longitude(deg)": -13.700936563123797,
        "Mean Anomaly(deg)": 22.564661454618314,
        "RAAN(deg)": 74.99579950860257,
        "Satellite Name": "Test1 331",
        "Satellite Number": 331,
        "Semi-Major Axis(m)": 6980739.136638005,
        "Time(s)": 100
    },
    {
        "Altitude(m)": 604530.431361473,
        "Argument of Periapsis(deg)": 0.0011460840504626045,
        "Eccentricity": 0.0,
        "Inclination(deg)": 60.0,
        "Latitude(deg)": 19.965036685308093,
        "Longitude(deg)": -13.393283532374365,
        "Mean Anomaly(deg)": 23.18476760008014,
        "RAAN(deg)": 74.99537945946284,
        "Satellite Name": "Test1 331",
        "Satellite Number": 331,
        "Semi-Major Axis(m)": 6980739.136638005,
        "Time(s)": 110
    },
    {
        "Altitude(m)": 604574.4861188022,
        "Argument of Periapsis(deg)": 0.0012502735095955685,
        "Eccentricity": 0.0,
        "Inclination(deg)": 60.0,
        "Latitude(deg)": 20.492813479654714,
        "Longitude(deg)": -13.083299563746557,
        "Mean Anomaly(deg)": 23.80487374554197,
        "RAAN(deg)": 74.99495941032309,
        "Satellite Name": "Test1 331",
        "Satellite Number": 331,
        "Semi-Major Axis(m)": 6980739.136638005,
        "Time(s)": 120
    },
    {
        "Altitude(m)": 604621.0210706964,
        "Argument of Periapsis(deg)": 0.0013544629687285324,
        "Eccentricity": 0.0,
        "Inclination(deg)": 60.0,
        "Latitude(deg)": 21.019844835270984,
        "Longitude(deg)": -12.770904362850748,
        "Mean Anomaly(deg)": 24.424979891003794,
        "RAAN(deg)": 74.99453936118336,
        "Satellite Name": "Test1 331",
        "Satellite Number": 331,
        "Semi-Major Axis(m)": 6980739.136638005,
        "Time(s)": 130
    },
    {
        "Altitude(m)": 604669.991501943,
        "Argument of Periapsis(deg)": 0.0014586524278614966,
        "Eccentricity": 0.0,
        "Inclination(deg)": 60.0,
        "Latitude(deg)": 21.546104785103715,
        "Longitude(deg)": -12.45601663843844,
        "Mean Anomaly(deg)": 25.045086036465623,
        "RAAN(deg)": 74.9941193120436,
        "Satellite Name": "Test1 331",
        "Satellite Number": 331,
        "Semi-Major Axis(m)": 6980739.136638005,
        "Time(s)": 140
    },
    {
        "Altitude(m)": 604721.3516617211,
        "Argument of Periapsis(deg)": 0.0015628418869944607,
        "Eccentricity": 0.0,
        "Inclination(deg)": 60.0,
        "Latitude(deg)": 22.07156681932958,
        "Longitude(deg)": -12.138553544439887,
        "Mean Anomaly(deg)": 25.665192181927463,
        "RAAN(deg)": 74.99369926290386,
        "Satellite Name": "Test1 331",
        "Satellite Number": 331,
        "Semi-Major Axis(m)": 6980739.136638005,
        "Time(s)": 150
    },
    {
        "Altitude(m)": 604775.054788419,
        "Argument of Periapsis(deg)": 0.0016670313461274247,
        "Eccentricity": 0.0,
        "Inclination(deg)": 60.0,
        "Latitude(deg)": 22.596203862600763,
        "Longitude(deg)": -11.818430120968417,
        "Mean Anomaly(deg)": 26.28529832738929,
        "RAAN(deg)": 74.99327921376411,
        "Satellite Name": "Test1 331",
        "Satellite Number": 331,
        "Semi-Major Axis(m)": 6980739.136638005,
        "Time(s)": 160
    },
    {
        "Altitude(m)": 604831.0531349456,
        "Argument of Periapsis(deg)": 0.0017712208052603888,
        "Eccentricity": 0.0,
        "Inclination(deg)": 60.0,
        "Latitude(deg)": 23.119988250506267,
        "Longitude(deg)": -11.495560247160615,
        "Mean Anomaly(deg)": 26.905404472851117,
        "RAAN(deg)": 74.99285916462438,
        "Satellite Name": "Test1 331",
        "Satellite Number": 331,
        "Semi-Major Axis(m)": 6980739.136638005,
        "Time(s)": 170
    },
    {
        "Altitude(m)": 604889.2979944854,
        "Argument of Periapsis(deg)": 0.001875410264393353,
        "Eccentricity": 0.0,
        "Inclination(deg)": 60.0,
        "Latitude(deg)": 23.642891705221896,
        "Longitude(deg)": -11.169856080106483,
        "Mean Anomaly(deg)": 27.52551061831295,
        "RAAN(deg)": 74.99243911548463,
        "Satellite Name": "Test1 331",
        "Satellite Number": 331,
        "Semi-Major Axis(m)": 6980739.136638005,
        "Time(s)": 180
    },
    {
        "Altitude(m)": 604949.7397266938,
        "Argument of Periapsis(deg)": 0.0019795997235263173,
        "Eccentricity": 0.0,
        "Inclination(deg)": 60.0,
        "Latitude(deg)": 24.164885310313323,
        "Longitude(deg)": -10.841227492746823,
        "Mean Anomaly(deg)": 28.145616763774772,
        "RAAN(deg)": 74.9920190663449,
        "Satellite Name": "Test1 331",
        "Satellite Number": 331,
        "Semi-Major Axis(m)": 6980739.136638005,
        "Time(s)": 190
    }
]